[{"OBJECT_NAME":"STARLINK-5132","OBJECT_ID":"2022-125AV","EPOCH":"2025-09-06T21:55:37.275168","MEAN_MOTION":15.08845442,"ECCENTRICITY":0.00013197,"INCLINATION":53.2184,"RA_OF_ASC_NODE":318.767,"ARG_OF_PERICENTER":87.9454,"MEAN_ANOMALY":272.1689,"EPHEMERIS_TYPE":0,"CLASSIFICATION_TYPE":"U","NORAD_CAT_ID":54007,"ELEMENT_SET_NO":999,"REV_AT_EPOCH":16172,"BSTAR":0.00017135442,"MEAN_MOTION_DOT":2.441e-5,"MEAN_MOTION_DDOT":0},{"OBJECT_NAME":"STARLINK-5145","OBJECT_ID":"2022-125AW","EPOCH":"2025-09-06T10:43:56.594784","MEAN_MOTION":15.08839439,"ECCENTRICITY":0.0001157,"INCLINATION":53.2178,"RA_OF_ASC_NODE":310.863,"ARG_OF_PERICENTER":86.6642,"MEAN_ANOMALY":273.4483,"EPHEMERIS_TYPE":0,"CLASSIFICATION_TYPE":"U","NORAD_CAT_ID":54008,"ELEMENT_SET_NO":999,"REV_AT_EPOCH":16179,"BSTAR":0.00015516538,"MEAN_MOTION_DOT":2.182e-5,"MEAN_MOTION_DDOT":0},{"OBJECT_NAME":"STARLINK-5099","OBJECT_ID":"2022-125AX","EPOCH":"2025-09-06T21:50:18.879072","MEAN_MOTION":15.08844505,"ECCENTRICITY":0.00014274,"INCLINATION":53.219,"RA_OF_ASC_NODE":318.7461,"ARG_OF_PERICENTER":82.1291,"MEAN_ANOMALY":277.9863,"EPHEMERIS_TYPE":0,"CLASSIFICATION_TYPE":"U","NORAD_CAT_ID":54009,"ELEMENT_SET_NO":999,"REV_AT_EPOCH":16172,"BSTAR":8.2559934e-5,"MEAN_MOTION_DOT":1.026e-5,"MEAN_MOTION_DDOT":0},{"OBJECT_NAME":"STARLINK-5127","OBJECT_ID":"2022-125AY","EPOCH":"2025-09-06T21:41:01.971456","MEAN_MOTION":15.08842134,"ECCENTRICITY":0.00012821,"INCLINATION":53.2175,"RA_OF_ASC_NODE":308.7431,"ARG_OF_PERICENTER":86.4356,"MEAN_ANOMALY":273.6783,"EPHEMERIS_TYPE":0,"CLASSIFICATION_TYPE":"U","NORAD_CAT_ID":54010,"ELEMENT_SET_NO":999,"REV_AT_EPOCH":16186,"BSTAR":9.1141691e-5,"MEAN_MOTION_DOT":1.163e-5,"MEAN_MOTION_DDOT":0},{"OBJECT_NAME":"STARLINK-5124","OBJECT_ID":"2022-125AZ","EPOCH":"2025-09-06T21:25:14.127168","MEAN_MOTION":15.08845952,"ECCENTRICITY":0.00013212,"INCLINATION":53.2178,"RA_OF_ASC_NODE":309.368,"ARG_OF_PERICENTER":91.2669,"MEAN_ANOMALY":268.8475,"EPHEMERIS_TYPE":0,"CLASSIFICATION_TYPE":"U","NORAD_CAT_ID":54011,"ELEMENT_SET_NO":999,"REV_AT_EPOCH":16185,"BSTAR":5.7508672e-5,"MEAN_MOTION_DOT":6.28e-6,"MEAN_MOTION_DDOT":0},{"OBJECT_NAME":"STARLINK-5126","OBJECT_ID":"2022-125BA","EPOCH":"2025-09-06T11:15:47.167488","MEAN_MOTION":15.08847824,"ECCENTRICITY":0.00013864,"INCLINATION":53.2175,"RA_OF_ASC_NODE":310.9972,"ARG_OF_PERICENTER":83.6647,"MEAN_ANOMALY":276.4503,"EPHEMERIS_TYPE":0,"CLASSIFICATION_TYPE":"U","NORAD_CAT_ID":54012,"ELEMENT_SET_NO":999,"REV_AT_EPOCH":16179,"BSTAR":0.00034278991,"MEAN_MOTION_DOT":5.173e-5,"MEAN_MOTION_DDOT":0},{"OBJECT_NAME":"STARLINK-5098","OBJECT_ID":"2022-125BB","EPOCH":"2025-09-06T20:58:42.591648","MEAN_MOTION":15.08842645,"ECCENTRICITY":0.00011663,"INCLINATION":53.2168,"RA_OF_ASC_NODE":309.2595,"ARG_OF_PERICENTER":87.1645,"MEAN_ANOMALY":272.9481,"EPHEMERIS_TYPE":0,"CLASSIFICATION_TYPE":"U","NORAD_CAT_ID":54013,"ELEMENT_SET_NO":999,"REV_AT_EPOCH":16185,"BSTAR":0.00011954574,"MEAN_MOTION_DOT":1.615e-5,"MEAN_MOTION_DDOT":0},{"OBJECT_NAME":"STARLINK-5055","OBJECT_ID":"2022-125BD","EPOCH":"2025-09-06T20:53:23.986464","MEAN_MOTION":15.08845894,"ECCENTRICITY":0.00012313,"INCLINATION":53.2173,"RA_OF_ASC_NODE":309.2318,"ARG_OF_PERICENTER":92.4365,"MEAN_ANOMALY":267.6769,"EPHEMERIS_TYPE":0,"CLASSIFICATION_TYPE":"U","NORAD_CAT_ID":54015,"ELEMENT_SET_NO":999,"REV_AT_EPOCH":16185,"BSTAR":0.0001142882,"MEAN_MOTION_DOT":1.532e-5,"MEAN_MOTION_DDOT":0},{"OBJECT_NAME":"STARLINK-5195","OBJECT_ID":"2022-136A","EPOCH":"2025-09-06T19:52:31.042848","MEAN_MOTION":15.08840331,"ECCENTRICITY":0.00013562,"INCLINATION":53.2175,"RA_OF_ASC_NODE":89.7549,"ARG_OF_PERICENTER":91.7588,"MEAN_ANOMALY":268.3559,"EPHEMERIS_TYPE":0,"CLASSIFICATION_TYPE":"U","NORAD_CAT_ID":54051,"ELEMENT_SET_NO":999,"REV_AT_EPOCH":15908,"BSTAR":4.0674689e-5,"MEAN_MOTION_DOT":3.59e-6,"MEAN_MOTION_DDOT":0},{"OBJECT_NAME":"STARLINK-5189","OBJECT_ID":"2022-136B","EPOCH":"2025-09-06T17:08:09.710592","MEAN_MOTION":15.08842447,"ECCENTRICITY":0.00011898,"INCLINATION":53.2181,"RA_OF_ASC_NODE":49.8325,"ARG_OF_PERICENTER":70.9157,"MEAN_ANOMALY":289.1964,"EPHEMERIS_TYPE":0,"CLASSIFICATION_TYPE":"U","NORAD_CAT_ID":54052,"ELEMENT_SET_NO":999,"REV_AT_EPOCH":15963,"BSTAR":0.00010612743,"MEAN_MOTION_DOT":1.402e-5,"MEAN_MOTION_DDOT":0},{"OBJECT_NAME":"STARLINK-5176","OBJECT_ID":"2022-136C","EPOCH":"2025-09-06T19:47:12.312384","MEAN_MOTION":15.08846212,"ECCENTRICITY":0.00013205,"INCLINATION":53.2171,"RA_OF_ASC_NODE":89.7297,"ARG_OF_PERICENTER":85.3753,"MEAN_ANOMALY":274.739,"EPHEMERIS_TYPE":0,"CLASSIFICATION_TYPE":"U","NORAD_CAT_ID":54053,"ELEMENT_SET_NO":999,"REV_AT_EPOCH":15908,"BSTAR":5.7393819e-5,"MEAN_MOTION_DOT":6.26e-6,"MEAN_MOTION_DDOT":0},{"OBJECT_NAME":"STARLINK-5163","OBJECT_ID":"2022-136D","EPOCH":"2025-09-06T19:36:36.812736","MEAN_MOTION":15.08843444,"ECCENTRICITY":0.00012219,"INCLINATION":53.2167,"RA_OF_ASC_NODE":89.6838,"ARG_OF_PERICENTER":102.2112,"MEAN_ANOMALY":257.9017,"EPHEMERIS_TYPE":0,"CLASSIFICATION_TYPE":"U","NORAD_CAT_ID":54054,"ELEMENT_SET_NO":999,"REV_AT_EPOCH":15908,"BSTAR":0.00015290365,"MEAN_MOTION_DOT":2.147e-5,"MEAN_MOTION_DDOT":0},{"OBJECT_NAME":"STARLINK-5158","OBJECT_ID":"2022-136E","EPOCH":"2025-09-06T19:41:55.065408","MEAN_MOTION":15.08848481,"ECCENTRICITY":8.897e-5,"INCLINATION":53.2164,"RA_OF_ASC_NODE":89.7077,"ARG_OF_PERICENTER":94.3049,"MEAN_ANOMALY":265.8045,"EPHEMERIS_TYPE":0,"CLASSIFICATION_TYPE":"U","NORAD_CAT_ID":54055,"ELEMENT_SET_NO":999,"REV_AT_EPOCH":15908,"BSTAR":0.00020668425,"MEAN_MOTION_DOT":3.004e-5,"MEAN_MOTION_DDOT":0},{"OBJECT_NAME":"STARLINK-5226","OBJECT_ID":"2022-136F","EPOCH":"2025-09-06T19:57:41.695776","MEAN_MOTION":15.08844106,"ECCENTRICITY":0.00014283,"INCLINATION":53.2168,"RA_OF_ASC_NODE":89.0764,"ARG_OF_PERICENTER":84.2705,"MEAN_ANOMALY":275.845,"EPHEMERIS_TYPE":0,"CLASSIFICATION_TYPE":"U","NORAD_CAT_ID":54056,"ELEMENT_SET_NO":999,"REV_AT_EPOCH":15909,"BSTAR":5.3332058e-5,"MEAN_MOTION_DOT":5.61e-6,"MEAN_MOTION_DDOT":0},{"OBJECT_NAME":"STARLINK-5167","OBJECT_ID":"2022-136H","EPOCH":"2025-09-06T20:56:04.254144","MEAN_MOTION":15.08845641,"ECCENTRICITY":0.00012381,"INCLINATION":53.2171,"RA_OF_ASC_NODE":89.319,"ARG_OF_PERICENTER":80.6297,"MEAN_ANOMALY":279.4835,"EPHEMERIS_TYPE":0,"CLASSIFICATION_TYPE":"U","NORAD_CAT_ID":54058,"ELEMENT_SET_NO":999,"REV_AT_EPOCH":15909,"BSTAR":0.00013462586,"MEAN_MOTION_DOT":1.856e-5,"MEAN_MOTION_DDOT":0},{"OBJECT_NAME":"STARLINK-5173","OBJECT_ID":"2022-136J","EPOCH":"2025-09-06T21:01:22.952640","MEAN_MOTION":15.08841509,"ECCENTRICITY":0.0001043,"INCLINATION":53.2167,"RA_OF_ASC_NODE":89.3422,"ARG_OF_PERICENTER":102.2746,"MEAN_ANOMALY":257.8363,"EPHEMERIS_TYPE":0,"CLASSIFICATION_TYPE":"U","NORAD_CAT_ID":54059,"ELEMENT_SET_NO":999,"REV_AT_EPOCH":15909,"BSTAR":0.00017328803,"MEAN_MOTION_DOT":2.471e-5,"MEAN_MOTION_DDOT":0}]
