STARLINK-5132           
1 54007U 22125AV  25249.91362587  .00002441  00000+0  17135-3 0  9991
2 54007  53.2184 318.7670 0001319  87.9454 272.1689 15.08845442161727
STARLINK-5145           
1 54008U 22125AW  25249.44718281  .00002182  00000+0  15517-3 0  9990
2 54008  53.2178 310.8630 0001157  86.6642 273.4483 15.08839439161797
STARLINK-5099           
1 54009U 22125AX  25249.90994073  .00001026  00000+0  82560-4 0  9996
2 54009  53.2190 318.7461 0001427  82.1291 277.9863 15.08844505161726
STARLINK-5127           
1 54010U 22125AY  25249.90349504  .00001163  00000+0  91142-4 0  9999
2 54010  53.2175 308.7431 0001282  86.4356 273.6783 15.08842134161860
STARLINK-5124           
1 54011U 22125AZ  25249.89252462  .00000628  00000+0  57509-4 0  9998
2 54011  53.2178 309.3680 0001321  91.2669 268.8475 15.08845952161856
STARLINK-5126           
1 54012U 22125BA  25249.46929592  .00005173  00000+0  34279-3 0  9995
2 54012  53.2175 310.9972 0001386  83.6647 276.4503 15.08847824161798
STARLINK-5098           
1 54013U 22125BB  25249.87410407  .00001615  00000+0  11955-3 0  9994
2 54013  53.2168 309.2595 0001166  87.1645 272.9481 15.08842645161855
STARLINK-5055           
1 54015U 22125BD  25249.87041651  .00001532  00000+0  11429-3 0  9991
2 54015  53.2173 309.2318 0001231  92.4365 267.6769 15.08845894161856
STARLINK-5195           
1 54051U 22136A   25249.82813707  .00000359  00000+0  40675-4 0  9999
2 54051  53.2175  89.7549 0001356  91.7588 268.3559 15.08840331159089
STARLINK-5189           
1 54052U 22136B   25249.71400128  .00001402  00000+0  10613-3 0  9995
2 54052  53.2181  49.8325 0001189  70.9157 289.1964 15.08842447159633
STARLINK-5176           
1 54053U 22136C   25249.82444806  .00000626  00000+0  57394-4 0  9994
2 54053  53.2171  89.7297 0001320  85.3753 274.7390 15.08846212159089
STARLINK-5163           
1 54054U 22136D   25249.81709274  .00002147  00000+0  15290-3 0  9995
2 54054  53.2167  89.6838 0001221 102.2112 257.9017 15.08843444159086
STARLINK-5158           
1 54055U 22136E   25249.82077622  .00003004  00000+0  20668-3 0  9990
2 54055  53.2164  89.7077 0000889  94.3049 265.8045 15.08848481159084
STARLINK-5226           
1 54056U 22136F   25249.83173259  .00000561  00000+0  53332-4 0  9995
2 54056  53.2168  89.0764 0001428  84.2705 275.8450 15.08844106159094
STARLINK-5167           
1 54058U 22136H   25249.87227146  .00001856  00000+0  13463-3 0  9994
2 54058  53.2171  89.3190 0001238  80.6297 279.4835 15.08845641159093
STARLINK-5173           
1 54059U 22136J   25249.87596010  .00002471  00000+0  17329-3 0  9993
2 54059  53.2167  89.3422 0001043 102.2746 257.8363 15.08841509159096
